[{"OBJECT_NAME":"STARLINK-34811","OBJECT_ID":"2025-191T","EPOCH":"2026-03-09T14:37:27.977376","MEAN_MOTION":15.05646212,"ECCENTRICITY":0.0002315,"INCLINATION":97.6016,"RA_OF_ASC_NODE":301.3914,"ARG_OF_PERICENTER":84.334,"MEAN_ANOMALY":275.815,"EPHEMERIS_TYPE":0,"CLASSIFICATION_TYPE":"U","NORAD_CAT_ID":65396,"ELEMENT_SET_NO":999,"REV_AT_EPOCH":3025,"BSTAR":0.00016369,"MEAN_MOTION_DOT":2.302e-5,"MEAN_MOTION_DDOT":0},{"OBJECT_NAME":"CZ-4B DEB","OBJECT_ID":"1999-057SZ","EPOCH":"2026-03-02T21:23:50.470368","MEAN_MOTION":14.9551257,"ECCENTRICITY":0.0057647,"INCLINATION":98.7518,"RA_OF_ASC_NODE":85.7766,"ARG_OF_PERICENTER":19.8773,"MEAN_ANOMALY":340.4672,"EPHEMERIS_TYPE":0,"CLASSIFICATION_TYPE":"U","NORAD_CAT_ID":39052,"ELEMENT_SET_NO":999,"REV_AT_EPOCH":72291,"BSTAR":0.0001718,"MEAN_MOTION_DOT":1.891e-5,"MEAN_MOTION_DDOT":0}]
